C/2012 X1 (LINEAR),e,44.2672,113.4834,132.0119,158.7437,0.0004928,0.98984009,0.0000,02/15.5659/2014,2000,g  4.8,3.6
# From MPEC 2026-E44
C/2012 X2 (PANSTARRS),e,34.2637,271.0162,215.4178,20.31143,0.0107670,0.76759991,50.9020,03/14.0/2026,2000,g  9.0,4.0
# From MPEC 2026-E44
C/2012 Y1 (LINEAR),e,20.9349,193.2005,268.7194,37.14856,0.0043530,0.94630166,20.8837,03/14.0/2026,2000,g 15.0,4.0
# From MPEC 2026-E44
C/2012 Y3 (McNaught),e,73.2291,122.4473,235.7427,28.02684,0.0066427,0.93677886,32.8788,03/14.0/2026,2000,g 11.0,4.0
# From MPEC 2026-E44
C/2013 A1 (SidingSpring),h,10/27.6347/2014,128.6879,301.1835,2.5660,1.000165,1.393355,2000,8.2,2.4
# From MPEC 2026-E44
P/2013 AL76 (Catalina),e,144.9418,146.1457,27.1511,6.477746,0.0597817,0.68390358,289.8519,03/14.0/2026,2000,g 16.0,4.0
# From MPEC 2026-E44
C/2013 B2 (Catalina),e,43.5407,331.8032,156.2804,4332,0.0000035,0.99914560,0.0000,07/04.1451/2013,2000,g 11.0,4.0
# From MPEC 2026-E44
C/2013 C2 (Tenagra),e,21.3715,247.5764,308.7347,15.87332,0.0155848,0.42603196,59.9844,03/14.0/2026,2000,g  4.0,4.0
# From MPEC 2013-Y32
P/2013 CU129 (PANSTARRS),e,11.8216,45.6343,212.9938,2.904184,0.1991443,0.71569479,206.7548,03/14.0/2026,2000,g 18.0,2.0
# From MPEC 2026-E44
C/2013 D1 (Holvorcem),e,10.0980,295.1627,252.4834,11.26257,0.0260764,0.78160282,123.2046,03/14.0/2026,2000,g 14.0,4.0
# From MPEC 2026-E44
C/2013 E1 (McNaught),e,158.7094,133.8799,311.2942,6705,0.0000018,0.99884208,0.0000,06/09.8139/2013,2000,g  5.5,4.0
# From MPEC 2026-E44
C/2013 E2 (Iwamoto),e,21.8407,182.4402,96.0091,227.0750,0.0002880,0.99368124,0.0000,03/01.5387/2013,2000,g 11.5,4.0
# From MPEC 2026-E44
C/2013 F1 (Boattini),h,12/07.0598/2012,79.7473,30.2578,91.7807,1.001998,1.837126,2000,13.0,4.0
# From MPEC 2026-E44
C/2013 F2 (Catalina),e,61.7876,344.1659,122.8952,826.6642,0.0000415,0.99251045,0.0000,04/21.2329/2013,2000,g  7.0,4.0
# From MPEC 2026-E44
C/2013 F3 (McNaught),e,85.1045,266.1609,18.7972,647.7471,0.0000598,0.99651430,0.0000,05/21.8235/2013,2000,g 12.0,4.0
# From MPEC 2026-E44
P/2013 G1 (Kowalski),e,5.4561,221.2761,51.3203,6.910141,0.0542592,0.51022410,244.1930,03/14.0/2026,2000,g 11.0,4.0
# From MPEC 2026-E44
C/2013 G2 (McNaught),e,96.0082,274.4644,293.9330,11337,0.0000008,0.99981009,0.0000,12/06.4648/2012,2000,g 11.5,4.0
# From MPEC 2026-E44
C/2013 G3 (PANSTARRS),h,11/08.2566/2014,64.5716,208.1106,76.6733,1.001379,3.877181,2000,9.0,4.0
# From MPEC 2026-E44
P/2013 G4 (PANSTARRS),e,5.9202,339.6214,214.3887,4.433090,0.1055952,0.40996461,143.8285,03/14.0/2026,2000,g 15.0,4.0
# From MPEC 2026-E44
C/2013 G5 (Catalina),e,40.4298,144.3992,165.7573,2075,0.0000104,0.99954395,0.0000,08/29.2934/2013,2000,g 14.0,4.0
# From MPEC 2026-E44
C/2013 G6 (Lemmon),e,123.9205,44.5701,215.6638,352.4226,0.0001490,0.99418891,0.0000,07/18.9006/2013,2000,g 13.5,4.0
# From MPEC 2026-E44
C/2013 G7 (McNaught),e,104.9488,48.4516,218.2857,1574,0.0000158,0.99702927,0.0000,03/13.8684/2014,2000,g  7.5,4.0
# From MPEC 2026-E44
C/2013 G8 (PANSTARRS),e,27.5374,240.9138,80.4983,5104,0.0000027,0.99898448,0.0000,11/08.9226/2013,2000,g  8.5,4.0
# From MPEC 2026-E44
C/2013 G9 (Tenagra),e,146.2168,35.8588,204.9717,6581,0.0000018,0.99919175,0.0000,01/11.2476/2015,2000,g  7.0,4.0
# From MPEC 2026-E44
C/2013 H1 (LaSagra),e,27.0471,85.2190,136.4043,186.6130,0.0003866,0.98579574,0.0000,05/14.0493/2013,2000,g 13.0,4.0
# From MPEC 2026-E44
C/2013 H2 (Boattini),e,128.2678,262.8310,36.0211,24777,0.0000003,0.99969807,0.0000,01/23.2979/2014,2000,g  6.5,4.0
# From MPEC 2026-E44
P/2013 J2 (McNaught),e,15.4890,289.2239,37.8767,6.232839,0.0633396,0.65565424,290.6009,03/14.0/2026,2000,g 13.0,4.0
# From MPEC 2026-E44
C/2013 J3 (McNaught),e,118.2471,200.8505,320.8097,956.6344,0.0000333,0.99586238,0.0000,02/24.7724/2013,2000,g 10.0,4.0
# From MPEC 2026-E44
C/2013 J5 (Boattini),h,11/30.5549/2012,135.8831,256.8990,19.1563,1.000279,4.885354,2000,10.0,4.0
# From MPEC 2026-E44
C/2013 J6 (Catalina),e,85.0058,68.7040,125.5573,59.34198,0.0021561,0.95947427,10.1791,03/14.0/2026,2000,g 14.5,4.0
# From MPEC 2026-E44
C/2013 K1 (Christensen),e,42.0881,126.0428,171.3873,78.32952,0.0014217,0.98768369,0.0000,05/25.8971/2013,2000,g 18.0,4.0
# From MPEC 2026-E44
C/2013 L2 (Catalina),e,106.6005,286.0101,1.9772,18284,0.0000004,0.99973354,0.0000,05/11.4926/2012,2000,g  8.0,4.0
# From MPEC 2026-E44
P/2013 N3 (PANSTARRS),e,2.1670,17.5878,323.8520,7.409077,0.0488718,0.59031925,215.8578,03/14.0/2026,2000,g 13.0,4.0
# From MPEC 2026-E44
C/2013 N4 (Borisov),e,37.1762,322.2887,142.3503,46.76945,0.0030815,0.97449901,0.0000,08/24.6755/2013,2000,g 12.0,4.0
# From MPEC 2026-E44
P/2013 N5 (PANSTARRS),e,23.3963,187.1288,176.9686,6.803069,0.0555452,0.73110727,257.3224,03/14.0/2026,2000,g 17.0,4.0
# From MPEC 2026-E44
C/2013 O3 (McNaught),e,102.6720,276.9999,338.0369,718.6785,0.0000512,0.99557623,0.0000,09/10.2046/2013,2000,g 11.5,4.0
# From MPEC 2026-E44
P/2013 P1 (PANSTARRS),e,18.6822,160.7348,138.0538,8.593680,0.0391233,0.60217980,186.9813,03/14.0/2026,2000,g 12.0,4.0
# From MPEC 2026-E44
C/2013 P2 (PANSTARRS),e,125.6638,2.0376,104.7346,785.1985,0.0000448,0.99642630,0.0000,02/20.0473/2014,2000,g 11.5,4.0
# From MPEC 2026-E44
C/2013 P3 (Palomar),h,11/25.1862/2014,93.8455,177.3025,177.4155,1.002179,8.687925,2000,5.5,4.0
# From MPEC 2026-E44
C/2013 P4 (PANSTARRS),e,4.2599,256.3714,114.0204,14.78387,0.0173389,0.59389965,73.4213,03/14.0/2026,2000,g  7.5,4.0
# From MPEC 2026-E44
C/2013 PE67 (Catalina-Spacewatch),e,116.5067,325.7769,59.7228,52.41009,0.0025977,0.96459750,11.6292,03/14.0/2026,2000,g 14.0,4.0
# From MPEC 2026-E44
C/2013 R1 (Lovejoy),e,64.3340,71.1037,66.8391,427.8430,0.0001114,0.99813097,0.0000,12/24.3619/2013,2000,g  7.0,4.0
# From MPEC 2026-E44
P/2013 R3 (Catalina-PANSTARRS),e,0.8668,341.6511,11.4198,3.029547,0.1869121,0.27842975,135.1168,03/14.0/2026,2000,g 14.0,4.0
# From MPEC 2026-E44
P/2013 R3-A,e,0.8658,341.5978,11.5057,3.029292,0.1869357,0.27835695,135.2046,03/14.0/2026,2000,g 14.3,4.0
# From MPEC 2026-E44
P/2013 R3-B,e,0.8676,341.6653,11.4526,3.029543,0.1869126,0.27837317,135.0931,03/14.0/2026,2000,g 14.5,4.0
# From MPEC 2026-E44
C/2013 S1 (Catalina),e,84.0669,221.3762,166.1358,3327,0.0000051,0.99914595,0.0000,08/01.9587/2013,2000,g 13.0,4.0
# From MPEC 2026-E44
P/2013 T1 (PANSTARRS),e,24.2688,10.0403,346.1937,5.856649,0.0695393,0.62339466,319.7684,03/14.0/2026,2000,g 16.5,4.0
# From MPEC 2026-E44
P/2013 T2 (Schwartz),e,9.4469,0.7769,345.5810,3.493645,0.1509336,0.50009972,346.5193,03/14.0/2026,2000,g 16.0,4.0
# From MPEC 2026-E44
C/2013 TW5 (Spacewatch),e,31.4867,319.5340,190.2649,237.3277,0.0002696,0.97557710,0.0000,08/17.8042/2014,2000,g  7.5,4.0
# From MPEC 2026-E44
C/2013 U1 (Catalina),e,23.9610,211.0541,143.3345,11.88715,0.0240485,0.79538981,108.2088,03/14.0/2026,2000,g 13.5,4.0
# From MPEC 2026-E44
C/2013 U2 (Holvorcem),e,43.2328,6.8190,107.7097,492.0029,0.0000903,0.98961571,0.0000,10/31.0720/2014,2000,g  7.5,4.0
# From MPEC 2026-E44
C/2013 UQ4 (Catalina),e,144.8094,317.7937,23.5116,59.04321,0.0021724,0.98177288,0.0000,07/08.5792/2014,2000,g 13.5,4.0
# From MPEC 2026-E44
C/2013 US10 (Catalina),h,11/12.3672/2015,148.9061,186.1874,340.2095,1.000160,0.813164,2000,4.4,4.0
# From MPEC 2026-E44
C/2013 V1 (Boattini),h,04/24.1718/2014,65.4314,72.9405,47.9180,1.000922,1.651015,2000,10.5,4.0
# From MPEC 2026-E44
C/2013 V2 (Borisov),e,37.9207,48.4966,94.0543,13590,0.0000006,0.99974445,0.0000,10/16.7744/2014,2000,g  7.0,4.0
# From MPEC 2026-E44
C/2013 V3 (Nevski),e,32.3216,100.6982,339.6305,12.56448,0.0221303,0.89092475,99.8735,03/14.0/2026,2000,g 14.0,4.0
# From MPEC 2026-E44
C/2013 V4 (Catalina),h,10/10.3884/2015,67.9771,55.5393,40.4694,1.000460,5.184676,2000,6.0,4.0
# From MPEC 2026-E44
C/2013 V5 (Oukaimeden),e,154.7104,279.6099,315.4879,372.7730,0.0001369,0.99833231,0.0000,10/01.4761/2014,2000,g  9.0,4.0
# From MPEC 2026-E44
P/2013 W1 (PANSTARRS),e,4.7009,117.8453,1.2652,3.483842,0.1515711,0.59394793,304.3510,03/14.0/2026,2000,g 17.5,4.0
# From MPEC 2026-E44
C/2013 W2 (PANSTARRS),e,4.8494,178.2905,303.8726,9.613809,0.0330644,0.54787605,136.2901,03/14.0/2026,2000,g 13.5,2.0
# From MPEC 2026-E44
C/2013 X1 (PANSTARRS),h,04/24.4471/2016,163.0564,132.0275,165.4980,1.000951,1.307805,2000,10.5,2.0
# From MPEC 2026-E44
C/2013 Y2 (PANSTARRS),e,29.3886,243.7013,308.5050,208.8852,0.0003265,0.99086521,0.0000,06/11.1836/2014,2000,g 12.0,4.0
# From MPEC 2026-E44
P/2013 YG46 (Spacewatch),e,7.0998,39.7184,252.0582,3.243262,0.1687450,0.47972509,190.8263,03/14.0/2026,2000,g 10.0,4.0
# From MPEC 2026-E44
P/2014 A2 (Hill),e,24.5659,106.6462,356.2495,5.918336,0.0684549,0.64667224,309.9361,03/14.0/2026,2000,g 15.0,4.0
# From MPEC 2026-E44
C/2014 A4 (SONEAR),e,121.3600,29.6517,356.9282,138307,0.0000000,0.99996956,0.0000,09/05.0279/2015,2000,g  6.0,4.0
# From MPEC 2026-E44
C/2014 A5 (PANSTARRS),e,32.0689,309.8447,182.2261,81.90119,0.0013297,0.94182400,5.6266,03/14.0/2026,2000,g 10.0,4.0
# From MPEC 2026-E44
C/2014 AA52 (Catalina),h,02/24.6836/2015,105.2050,330.7503,292.4989,1.000174,2.023485,2000,10.0,4.0
# From MPEC 2026-E44
C/2014 B1 (Schwartz),h,09/09.6481/2017,28.3838,161.2937,345.7499,1.000483,9.535932,2000,4.0,4.0
# From MPEC 2026-E44
P/2014 C1 (TOTAS),e,3.1946,39.5902,187.9692,4.039617,0.1213931,0.33936111,257.7175,03/14.0/2026,2000,g 15.5,4.0
# From MPEC 2026-E44
C/2014 C2 (STEREO),e,135.1086,282.8467,55.5224,1454,0.0000178,0.99965394,0.0000,02/16.0023/2014,2000,g 18.0,4.0
# From MPEC 2026-E44
C/2014 C3 (NEOWISE),e,151.7576,204.6540,345.8952,106.1097,0.0009017,0.98263568,0.0000,01/14.9815/2014,2000,g 14.0,4.0
# From MPEC 2026-E44
C/2014 E2 (Jacques),e,156.5115,56.2337,344.0586,568.1769,0.0000728,0.99880408,0.0000,06/30.3658/2014,2000,g  7.1,4.4
# From MPEC 2026-E44
C/2014 F1 (Hill),e,108.0694,240.0379,8.2357,2293,0.0000090,0.99848008,0.0000,10/03.1814/2013,2000,g 10.5,4.0
# From MPEC 2026-E44
C/2014 F2 (Tenagra),e,118.8874,267.3091,85.9486,145.9787,0.0005588,0.97045818,0.0000,12/29.3361/2014,2000,g  9.5,4.0
# From MPEC 2026-E44
